ONEWEB-0208             
1 48243U 21031AK  25300.54399911  .00000159  00000+0  39366-3 0  9993
2 48243  87.9016 336.0497 0002040  95.2235 264.9128 13.14504735217744
ONEWEB-0200             
1 48244U 21031AL  25300.50753874 -.00000195  00000+0 -56004-3 0  9992
2 48244  87.9017 336.0467 0001949  94.4054 265.7299 13.14503036217662
ONEWEB-0217             
1 48245U 21031AM  25300.52339073 -.00000167  00000+0 -48561-3 0  9994
2 48245  87.9025 336.0340 0002189  96.1144 264.0235 13.14504035217615
ONEWEB-0211             
1 48767U 21045A   25300.94378205  .00000055  00000+0  11097-3 0  9992
2 48767  87.8971 305.4726 0002295  97.0119 263.1272 13.16134624213893
ONEWEB-0223             
1 48768U 21045B   25300.91418884  .00000069  00000+0  15051-3 0  9997
2 48768  87.8959 305.5363 0002130 103.7274 256.4094 13.15549722213865
ONEWEB-0230             
1 48769U 21045C   25300.96172903 -.00000066  00000+0 -20823-3 0  9994
2 48769  87.8960 305.5585 0001696  91.8536 268.2789 13.15548435214131
ONEWEB-0237             
1 48770U 21045D   25300.95063734  .00000021  00000+0  22263-4 0  9996
2 48770  87.8963 305.5590 0001920 100.7119 259.4228 13.15549408213858
ONEWEB-0235             
1 48771U 21045E   25300.92528414  .00000148  00000+0  35795-3 0  9998
2 48771  87.8959 305.5352 0002079 104.3979 255.7382 13.15548900213845
ONEWEB-0242             
1 48772U 21045F   25300.84289533  .00000180  00000+0  44524-3 0  9992
2 48772  87.8970 305.5415 0001788  97.3592 262.7741 13.15548754213874
ONEWEB-0241             
1 48773U 21045G   25300.29781860  .00000029  00000+0  41793-4 0  9990
2 48773  87.8960 305.6923 0002254  98.1578 261.9808 13.15549177213719
ONEWEB-0243             
1 48774U 21045H   25300.93794353 -.00000540  00000+0 -14684-2 0  9990
2 48774  87.8967 305.5718 0001859 103.4156 256.7182 13.15549651213826
ONEWEB-0222             
1 48775U 21045J   25300.38891986  .00000150  00000+0  36544-3 0  9995
2 48775  87.8967 305.6331 0001953  96.0371 264.0982 13.15549183213796
ONEWEB-0244             
1 48776U 21045K   25300.94746708 -.00000002  00000+0 -38682-4 0  9993
2 48776  87.8972 305.5067 0001875  96.2241 263.9103 13.15548337214434
ONEWEB-0247             
1 48777U 21045L   25300.94429564  .00000053  00000+0  10547-3 0  9995
2 48777  87.8961 305.5707 0002173 119.1525 240.9823 13.15549236213876
ONEWEB-0245             
1 48778U 21045M   25300.93953824  .00000056  00000+0  11489-3 0  9995
2 48778  87.8959 305.5355 0002067  92.2820 267.8547 13.15549642213843
ONEWEB-0229             
1 48779U 21045N   25300.93478675  .00000111  00000+0  26196-3 0  9995
2 48779  87.8958 305.5358 0001795  96.0641 264.0693 13.15549444213870
ONEWEB-0228             
1 48780U 21045P   25300.96820200 -.00000076  00000+0 -23685-3 0  9997
2 48780  87.8972 305.5084 0001881  95.0975 265.0370 13.15548989213796
ONEWEB-0232             
1 48781U 21045Q   25300.94271046  .00000080  00000+0  17850-3 0  9994
2 48781  87.8973 305.5044 0001848  92.6254 267.5088 13.15549702214114
ONEWEB-0231             
1 48782U 21045R   25300.92053497  .00000129  00000+0  30894-3 0  9998
2 48782  87.8958 305.5576 0001900 101.6097 258.5247 13.15548898213800
ONEWEB-0234             
1 48783U 21045S   25300.95841725 -.00000034  00000+0 -12439-3 0  9993
2 48783  87.8964 305.5213 0002479  75.3833 284.7572 13.15549058213949
ONEWEB-0238             
1 48784U 21045T   25300.95868954 -.00000073  00000+0 -22788-3 0  9998
2 48784  87.8961 305.5158 0002039  83.9506 276.1857 13.15546205213840
ONEWEB-0240             
1 48785U 21045U   25300.29543823  .00000021  00000+0  22356-4 0  9994
2 48785  87.8965 305.6364 0002213  95.9620 264.1762 13.15547732213780
ONEWEB-0246             
1 48786U 21045V   25300.44200622  .00000016  00000+0  74796-5 0  9999
2 48786  87.8969 305.6204 0001777  96.9878 263.1455 13.15548182213674
ONEWEB-0210             
1 48787U 21045W   25300.94905521  .00000013  00000+0  31124-6 0  9991
2 48787  87.8970 305.5185 0001828 113.5352 246.5971 13.15548802213783
ONEWEB-0214             
1 48788U 21045X   25300.95777392 -.00000055  00000+0 -18023-3 0  9994
2 48788  87.8968 305.5031 0001624 105.6909 254.4400 13.15547077213750
ONEWEB-0221             
1 48789U 21045Y   25300.96490008 -.00000088  00000+0 -26881-3 0  9999
2 48789  87.8963 305.5238 0001974  98.6903 261.4451 13.15549302213845
ONEWEB-0213             
1 48790U 21045Z   25300.95381063  .00000011  00000+0 -49166-5 0  9998
2 48790  87.8962 305.5357 0001902  99.9921 260.1424 13.15548197213907
ONEWEB-0212             
1 48791U 21045AA  25300.93082863  .00000146  00000+0  35334-3 0  9991
2 48791  87.8969 305.5261 0001915  90.5542 269.5808 13.15547271213898
ONEWEB-0227             
1 48792U 21045AB  25300.93003727  .00000139  00000+0  33628-3 0  9990
2 48792  87.8959 305.5414 0001949  95.3908 264.7444 13.15549404213842
ONEWEB-0226             
1 48793U 21045AC  25300.46736350  .00000160  00000+0  39063-3 0  9997
2 48793  87.8960 305.6419 0001816 103.3709 256.7624 13.15548440213753
ONEWEB-0224             
1 48794U 21045AD  25300.96330167 -.00000046  00000+0 -15602-3 0  9997
2 48794  87.8960 305.5772 0002824  91.8613 268.2841 13.15549849213742
ONEWEB-0233             
1 48795U 21045AE  25300.96792757 -.00000086  00000+0 -26183-3 0  9995
2 48795  87.8961 305.5877 0002118  98.5293 261.6077 13.15548725213766
ONEWEB-0190             
1 48796U 21045AF  25300.95538970 -.00000052  00000+0 -17345-3 0  9993
2 48796  87.8961 305.5523 0002232 112.0286 248.1082 13.15548933213831
ONEWEB-0236             
1 48797U 21045AG  25300.97282060 -.00000068  00000+0 -21507-3 0  9994
2 48797  87.8959 305.5602 0001913  87.5367 272.5982 13.15548621213720
ONEWEB-0248             
1 48798U 21045AH  25300.90942997  .00000021  00000+0  20749-4 0  9995
2 48798  87.8967 305.5318 0002414  99.5468 260.5935 13.15546744213871
ONEWEB-0225             
1 48799U 21045AJ  25300.93162897  .00000146  00000+0  35458-3 0  9992
2 48799  87.8962 305.5553 0002165 108.0361 252.1005 13.15548077213886
ONEWEB-0215             
1 48800U 21045AK  25299.98880973  .00000057  00000+0  11771-3 0  9992
2 48800  87.8969 305.6990 0002355 107.1172 253.0217 13.15550527213634
ONEWEB-0216             
1 48801U 21045AL  25300.91100691  .00000041  00000+0  75307-4 0  9990
2 48801  87.8960 305.5509 0001721  97.1106 263.0220 13.15550552213769
ONEWEB-0239             
1 48802U 21045AM  25300.91578357  .00000005  00000+0 -20524-4 0  9991
2 48802  87.8961 305.5648 0002606 100.8143 259.3281 13.15548380213807
ONEWEB-0249             
1 48967U 21060A   25300.95738287  .00000031  00000+0  46654-4 0  9994
2 48967  87.8986 275.0377 0001984  88.3680 271.7678 13.16594719209058
ONEWEB-0250             
1 48968U 21060B   25300.94092272  .00000053  00000+0  91654-4 0  9995
2 48968  87.8985 273.5568 0002961  80.2156 279.9314 13.25816075209440
ONEWEB-0252             
1 48970U 21060D   25300.91304299  .00000066  00000+0  13832-3 0  9995
2 48970  87.8988 275.0398 0001681  90.7286 269.4037 13.16591766209096
ONEWEB-0253             
1 48971U 21060E   25300.90195620 -.00000316  00000+0 -86113-3 0  9993
2 48971  87.8985 275.0460 0001953  91.5916 268.5439 13.16593020209029
ONEWEB-0254             
1 48972U 21060F   25300.91146831  .00000037  00000+0  61892-4 0  9991
2 48972  87.8994 275.0330 0002176  92.8958 267.2422 13.16592102209022
ONEWEB-0255             
1 48973U 21060G   25300.94946797  .00000020  00000+0  18640-4 0  9999
2 48973  87.8984 275.0461 0002074  90.8012 269.3357 13.16595016209109
ONEWEB-0256             
1 48974U 21060H   25300.89959260 -.00000011  00000+0 -61487-4 0  9992
2 48974  87.8976 275.0666 0001771  84.1829 275.9503 13.16594707209060
ONEWEB-0257             
1 48975U 21060J   25300.93205574  .00000110  00000+0  25391-3 0  9991
2 48975  87.8989 275.0338 0001924  91.2773 268.8578 13.16594751209026
ONEWEB-0258             
1 48976U 21060K   25300.93364015  .00000094  00000+0  21230-3 0  9997
2 48976  87.8979 275.0526 0001977  83.7296 276.4060 13.16595381209031
ONEWEB-0259             
1 48977U 21060L   25300.92731086  .00000093  00000+0  20928-3 0  9995
2 48977  87.8991 275.0436 0002038  89.2758 270.8606 13.16594979209068
ONEWEB-0260             
1 48978U 21060M   25300.91860972  .00000103  00000+0  23497-3 0  9998
2 48978  87.8977 275.0645 0001486  87.3310 272.7992 13.16594999209043
ONEWEB-0261             
1 48979U 21060N   25300.96451242 -.00000028  00000+0 -10729-3 0  9992
2 48979  87.8978 275.0569 0001980  98.5859 261.5496 13.16592134209102
ONEWEB-0262             
1 48980U 21060P   25300.94471982  .00000032  00000+0  49404-4 0  9991
2 48980  87.8989 275.0296 0002244  87.3687 272.7700 13.16595315209063
ONEWEB-0263             
1 48981U 21060Q   25300.90039546  .00000034  00000+0  54989-4 0  9990
2 48981  87.8977 275.0565 0002072  96.3006 263.8361 13.16594188209021
ONEWEB-0264             
1 48982U 21060R   25300.93758733  .00000096  00000+0  21814-3 0  9998
2 48982  87.8980 275.0536 0001767  91.8402 268.2931 13.16592154209038
ONEWEB-0266             
1 48984U 21060T   25300.95897861 -.00000031  00000+0 -11479-3 0  9995
2 48984  87.8989 275.0304 0002057  82.6267 277.5097 13.16594264209021
ONEWEB-0267             
1 48985U 21060U   25300.97005047  .00000025  00000+0  32113-4 0  9995
2 48985  87.8986 275.0292 0001914  93.3975 266.7375 13.16592613209037
ONEWEB-0268             
1 48986U 21060V   25300.93837974  .00000031  00000+0  48512-4 0  9991
2 48986  87.8991 275.0428 0001813  86.4277 273.7061 13.16597443209295
ONEWEB-0269             
1 48987U 21060W   25300.91938124  .00000081  00000+0  17859-3 0  9993
2 48987  87.8978 275.0732 0001748  82.5059 277.6270 13.16592695209065
ONEWEB-0270             
1 48988U 21060X   25300.93679727  .00000045  00000+0  84787-4 0  9992
2 48988  87.8989 275.0449 0002224  93.8662 266.2724 13.16592347209105
